IRIDIUM 150             
1 43257U 18030J   24324.04626363  .00000473  00000+0  16177-3 0  9996
2 43257  86.3997 170.8750 0001946  78.0194 282.1220 14.34211041347745
IRIDIUM 143             
1 43258U 18030K   24323.81791071  .00000441  00000+0  15048-3 0  9991
2 43258  86.4002 171.0404 0001901  70.1144 290.0257 14.34217738347626
IRIDIUM 161             
1 43478U 18047C   24324.00035237  .00000298  00000+0  82461-4 0  9994
2 43478  86.4472 328.8505 0002352  86.6117 273.5353 14.43274703342171
IRIDIUM 152             
1 43479U 18047D   24323.72086243  .00000224  00000+0  72945-4 0  9991
2 43479  86.3946 328.8269 0002426  93.1317 267.0156 14.34216370340006
IRIDIUM 147             
1 43480U 18047E   24323.72719866  .00000250  00000+0  82070-4 0  9996
2 43480  86.3948 328.8191 0002353  99.3371 260.8091 14.34217125340009
IRIDIUM 110             
1 43481U 18047F   24324.01262199  .00000229  00000+0  74675-4 0  9990
2 43481  86.3950 328.7766 0002680  96.4029 263.7472 14.34218341340030
IRIDIUM 162             
1 43482U 18047G   24323.37005804  .00000276  00000+0  76110-4 0  9995
2 43482  86.4471 329.0121 0002517  92.3246 267.8243 14.43270753342076
IRIDIUM 160             
1 43569U 18061A   24324.02821768  .00000473  00000+0  16177-3 0  9990
2 43569  86.3931 297.1281 0002238  93.3393 266.8059 14.34215941330932
